[{"OBJECT_NAME":"JILIN-1 GAOFEN 3J","OBJECT_ID":"2020-065J","EPOCH":"2026-03-09T22:30:27.627264","MEAN_MOTION":15.75586121,"ECCENTRICITY":0.00041731,"INCLINATION":97.2394,"RA_OF_ASC_NODE":125.824,"ARG_OF_PERICENTER":135.626,"MEAN_ANOMALY":224.5341,"EPHEMERIS_TYPE":0,"CLASSIFICATION_TYPE":"U","NORAD_CAT_ID":46462,"ELEMENT_SET_NO":999,"REV_AT_EPOCH":30471,"BSTAR":0.0010197143,"MEAN_MOTION_DOT":0.00157536,"MEAN_MOTION_DDOT":0},{"OBJECT_NAME":"STARLINK-11696 [DTC]","OBJECT_ID":"2025-124H","EPOCH":"2026-03-09T22:09:11.083680","MEAN_MOTION":15.71074319,"ECCENTRICITY":0.00018564,"INCLINATION":43.0002,"RA_OF_ASC_NODE":27.5785,"ARG_OF_PERICENTER":234.7607,"MEAN_ANOMALY":125.3087,"EPHEMERIS_TYPE":0,"CLASSIFICATION_TYPE":"U","NORAD_CAT_ID":64324,"ELEMENT_SET_NO":999,"REV_AT_EPOCH":4287,"BSTAR":0.0030884601,"MEAN_MOTION_DOT":0.00420688,"MEAN_MOTION_DDOT":0}]
